SAUDISAT 1C (SO-50)     
1 27607U 02058C   26160.67027096  .00000963  00000+0  13085-3 0  9996
2 27607  64.5504 152.2423 0075428 263.8699  95.3809 14.83030513263346
SAUDISAT 2              
1 28371U 04025F   26160.74789617  .00000243  00000+0  65297-4 0  9997
2 28371  98.5506 160.5376 0023907 322.0188  37.9322 14.56679512164664
SAUDISAT 3              
1 31118U 07012B   26160.57443086  .00000256  00000+0  49513-4 0  9994
2 31118  98.1453 110.9702 0013332 250.2155 109.7614 14.71421276 26627
PISAT                   
1 41784U 16059B   26160.78749543  .00000841  00000+0  15087-3 0  9993
2 41784  97.8178 161.5583 0027854 227.1811 132.7054 14.68970869518658
FLYING LAPTOP           
1 42831U 17042G   26160.91972382  .00004081  00000+0  32211-3 0  9992
2 42831  97.4660 316.7345 0019221 145.4184 214.8295 15.01100148485361
SALSAT                  
1 46495U 20068K   26160.75398104  .00007599  00000+0  26681-3 0  9991
2 46495  97.8854 163.3666 0008713 338.5586  21.5287 15.29692121314224
